[{"OBJECT_NAME":"NORSAT 3","OBJECT_ID":"2021-034E","EPOCH":"2026-03-09T22:23:32.431200","MEAN_MOTION":15.04338407,"ECCENTRICITY":0.0005858,"INCLINATION":97.5427,"RA_OF_ASC_NODE":128.5959,"ARG_OF_PERICENTER":280.8366,"MEAN_ANOMALY":79.2201,"EPHEMERIS_TYPE":0,"CLASSIFICATION_TYPE":"U","NORAD_CAT_ID":48272,"ELEMENT_SET_NO":999,"REV_AT_EPOCH":26491,"BSTAR":0.00030361478,"MEAN_MOTION_DOT":4.174e-5,"MEAN_MOTION_DDOT":0},{"OBJECT_NAME":"STARLINK-35245","OBJECT_ID":"2025-207H","EPOCH":"2026-03-09T17:44:36.315744","MEAN_MOTION":15.056491,"ECCENTRICITY":8.519e-5,"INCLINATION":97.6029,"RA_OF_ASC_NODE":138.7863,"ARG_OF_PERICENTER":126.3755,"MEAN_ANOMALY":233.7551,"EPHEMERIS_TYPE":0,"CLASSIFICATION_TYPE":"U","NORAD_CAT_ID":65599,"ELEMENT_SET_NO":999,"REV_AT_EPOCH":2827,"BSTAR":0.00046077597,"MEAN_MOTION_DOT":6.594e-5,"MEAN_MOTION_DDOT":0}]
